OBJECT_NAME,OBJECT_ID,EPOCH,MEAN_MOTION,ECCENTRICITY,INCLINATION,RA_OF_ASC_NODE,ARG_OF_PERICENTER,MEAN_ANOMALY,EPHEMERIS_TYPE,CLASSIFICATION_TYPE,NORAD_CAT_ID,ELEMENT_SET_NO,REV_AT_EPOCH,BSTAR,MEAN_MOTION_DOT,MEAN_MOTION_DDOT
IRIDIUM 138,2017-083B,2026-06-25T21:33:07.187904,14.34217839,.0002231,86.3985,318.0698,87.2056,272.9395,0,U,43071,999,44538,.12575E-4,.55E-6,0
IRIDIUM 116,2017-083C,2026-06-25T22:27:55.157184,14.34217970,.0002143,86.3971,318.3429,101.7208,258.4228,0,U,43072,999,44542,.43431E-4,.141E-5,0
IRIDIUM 130,2017-083D,2026-06-25T21:42:15.014880,14.34216760,.0001994,86.3978,318.6322,96.4120,263.7302,0,U,43073,999,44536,.81001E-5,.42E-6,0
IRIDIUM 151,2017-083E,2026-06-25T22:46:11.176608,14.34217788,.0002189,86.3972,318.3955,93.9266,266.2180,0,U,43074,999,44539,.10946E-4,.5E-6,0
IRIDIUM 134,2017-083F,2026-06-25T22:00:31.131936,14.34218243,.0002133,86.3974,318.4169,93.9759,266.1681,0,U,43075,999,44535,.38796E-4,.128E-5,0
IRIDIUM 137,2017-083G,2026-06-26T03:20:11.225184,14.34217363,.0002376,86.3974,318.4173,102.4622,257.6840,0,U,43076,999,44545,-.13138E-4,-.17E-6,0
IRIDIUM 141,2017-083H,2026-06-25T22:09:39.168000,14.34217791,.0002204,86.3970,318.3373,91.3549,268.7899,0,U,43077,999,44542,.6854E-5,.39E-6,0
IRIDIUM 153,2017-083J,2026-06-25T19:20:19.430016,14.34217320,.0002089,86.3964,286.8675,90.8348,269.3087,0,U,43078,999,44651,-.12333E-4,-.15E-6,0
IRIDIUM 131,2017-083K,2026-06-25T21:51:23.177088,14.34217302,.0002141,86.3973,318.5294,92.4751,267.6690,0,U,43079,999,44535,-.37165E-5,.9E-7,0
IRIDIUM 144,2018-030A,2026-06-25T17:48:58.933728,14.34220022,.0002222,86.3964,286.8228,98.4361,261.7087,0,U,43249,999,43136,.61192E-4,.191E-5,0
IRIDIUM 149,2018-030B,2026-06-25T19:38:35.457216,14.34217423,.0002202,86.3962,286.7581,94.1022,266.0425,0,U,43250,999,43139,-.68553E-5,.1E-7,0
IRIDIUM 157,2018-030C,2026-06-25T20:05:59.408160,14.34217528,.0002155,86.3964,286.8034,94.9410,265.2032,0,U,43251,999,43137,-.10528E-4,-.1E-6,0
IRIDIUM 140,2018-030D,2026-06-25T20:33:23.308992,14.34217361,.0002144,86.3964,286.8079,95.2340,264.9100,0,U,43252,999,43143,.57006E-4,.179E-5,0
IRIDIUM 145,2018-030E,2026-06-25T21:55:35.369184,14.34218060,.0002208,86.3960,286.7562,103.0324,257.1118,0,U,43253,999,43137,.20735E-4,.78E-6,0
IRIDIUM 146,2018-030F,2026-06-25T19:47:43.424160,14.34217702,.0002244,86.3963,286.8055,98.0196,262.1254,0,U,43254,999,43137,.19493E-4,.74E-6,0
IRIDIUM 148,2018-030G,2026-06-25T17:21:35.428608,14.34217672,.000221,86.3965,286.8914,96.1958,263.9489,0,U,43255,999,43139,-.26263E-5,.12E-6,0
IRIDIUM 142,2018-030H,2026-06-25T19:56:51.421344,14.34217739,.0002264,86.3960,286.7349,99.6563,260.4888,0,U,43256,999,43137,-.11382E-5,.17E-6,0
IRIDIUM 150,2018-030J,2026-06-25T19:11:11.369760,14.34218232,.0002154,86.3965,286.8647,95.6391,264.5051,0,U,43257,999,43139,.64171E-4,.199E-5,0
IRIDIUM 143,2018-030K,2026-06-25T20:24:15.407712,14.34218012,.0002201,86.3967,286.9363,98.0693,262.0752,0,U,43258,999,43133,.81834E-4,.249E-5,0
IRIDIUM 161,2018-047C,2026-06-26T04:22:04.690272,14.43283182,.0002503,86.4480,84.7105,81.3517,278.7968,0,U,43478,999,42643,.82215E-4,.297E-5,0
IRIDIUM 152,2018-047D,2026-06-26T04:07:18.202944,14.34218050,.0002317,86.3956,84.5760,82.7056,277.4403,0,U,43479,999,42377,.76867E-4,.235E-5,0
IRIDIUM 147,2018-047E,2026-06-26T04:16:26.253696,14.34217485,.0002024,86.3954,84.5786,87.1342,273.0086,0,U,43480,999,42377,-.84587E-5,-.4E-7,0
IRIDIUM 110,2018-047F,2026-06-26T04:25:34.314816,14.34217222,.0002357,86.3956,84.6680,78.4304,281.7156,0,U,43481,999,42376,-.18115E-4,-.31E-6,0
IRIDIUM 162,2018-047G,2026-06-26T04:13:00.619104,14.43278753,.0002275,86.4480,84.6041,83.9369,276.2091,0,U,43482,999,42642,.87731E-4,.315E-5,0
IRIDIUM 160,2018-061A,2026-06-25T17:04:46.495200,14.34217757,.0002264,86.3956,53.2329,85.7581,274.3873,0,U,43569,999,41459,.44927E-5,.32E-6,0
IRIDIUM 166,2018-061B,2026-06-26T03:44:06.445824,14.34217454,.0002027,86.3949,52.9973,88.1146,272.0282,0,U,43570,999,41468,-.1004E-4,-.8E-7,0
IRIDIUM 158,2018-061C,2026-06-26T02:58:26.433120,14.34217777,.0002174,86.3952,53.0207,83.8382,276.3061,0,U,43571,999,41464,.43695E-4,.142E-5,0
IRIDIUM 165,2018-061D,2026-06-26T03:34:58.422720,14.34217566,.0002138,86.3955,53.0566,89.6697,270.4744,0,U,43572,999,41467,.32555E-4,.111E-5,0
IRIDIUM 155,2018-061E,2026-06-26T04:20:38.440608,14.34217929,.0002031,86.3952,52.9120,84.3619,275.7809,0,U,43573,999,41464,.1486E-4,.61E-6,0
IRIDIUM 154,2018-061F,2026-06-26T03:53:14.440416,14.34218039,.0002177,86.3955,53.0541,89.4428,270.7017,0,U,43574,999,41469,.30683E-4,.106E-5,0
IRIDIUM 163,2018-061G,2026-06-26T03:25:50.487744,14.34217799,.0002205,86.3953,52.9770,83.7062,276.4385,0,U,43575,999,41466,.30752E-4,.106E-5,0
